#aV2008  6 24  0  0   .00000000      96 DD+AD WGS84 FIT  NGA
## 1485 172800.00000000   900.00000000 54641  .0000000000000
+   31     2  3  4  5  6  7  8  9 10 11 12 13 14 15 16 17 18
+         19 20 21 22 23 24 25 26 27 28 29 30 31 32  0  0  0
+          0  0  0  0  0  0  0  0  0  0  0  0  0  0  0  0  0
+          0  0  0  0  0  0  0  0  0  0  0  0  0  0  0  0  0
+          0  0  0  0  0  0  0  0  0  0  0  0  0  0  0  0  0
++         0  0  0  0  0  0  0  0  0  0  0  0  0  0  0  0  0
++         0  0  0  0  0  0  0  0  0  0  0  0  0  0  0  0  0
++         0  0  0  0  0  0  0  0  0  0  0  0  0  0  0  0  0
++         0  0  0  0  0  0  0  0  0  0  0  0  0  0  0  0  0
++         0  0  0  0  0  0  0  0  0  0  0  0  0  0  0  0  0
%c cc cc ccc ccc cccc cccc cccc cccc ccccc ccccc ccccc ccccc
%c cc cc ccc ccc cccc cccc cccc cccc ccccc ccccc ccccc ccccc
%f  0.0000000  0.000000000  0.00000000000  0.000000000000000
%f  0.0000000  0.000000000  0.00000000000  0.000000000000000
%i    0    0    0    0      0      0      0      0         0
%i    0    0    0    0      0      0      0      0         0
/*      NGA, ST. LOUIS,MO.                                  
/*   EPHEMERIS COMPUTED FROM  3 DAYS OF DATA                
/* CCCCCCCCCCCCCCCCCCCCCCCCCCCCCCCCCCCCCCCCCCCCCCCCCCCCCCCCC
/* CCCCCCCCCCCCCCCCCCCCCCCCCCCCCCCCCCCCCCCCCCCCCCCCCCCCCCCCC
*  2008  6 24 19 15   .00000000                                                 
P  2   4507.255087  18272.535427  18726.676188    205.341042                    
V  2 -21568.034736 -10699.936477  15148.416108      -.012542                    
P  3   1387.579168 -18614.793778 -19029.025060    246.560975                    
V  3  20507.513060 -12357.942080  14129.135265       .051636                    
P  4  -8086.190883  13299.545955  21423.874752    -98.953204                    
V  4 -23654.928111 -14034.551882    142.723782      -.093553                    
P  5  14640.150997  11364.570549  18800.034325   -381.973444                    
V  5    454.510021  24512.102281 -14811.605067       .119228                    
P  6   7767.268108 -19195.777122 -16450.808427    152.820658                    
V  6  19364.558633  -9258.056533  19689.233355       .054123                    
P  7 -23757.076478  -5311.409708 -10744.092254    -15.012953                    
V  7 -10508.195086  -8898.761757  27634.218721       .066710                    
P  8 -17794.830118   3832.166700 -19593.251739   -158.917198                    
V  8 -20011.238054 -14124.743126  15015.945467      -.017795                    
P  9  21343.602159  15356.675611  -4917.075456      2.268472                    
V  9  -5810.040940   -627.982332 -31099.549126       .016916                    
P 10   1125.977063  26215.689738  -2873.420989     -2.438502                    
V 10  -3094.538658   3414.434032  31751.272418      -.003145                    
P 11 -24103.742380 -11183.763115  -3117.968810     24.255341                    
V 11   5117.175921  -3102.959084 -29584.505599      -.004270                    
P 12  11916.636652  16266.697902  17423.167952   -358.109481                    
V 12  -1783.641072  21890.195377 -19217.537148       .005074                    
P 13 -24055.272182   4882.810373  10004.429444    261.158649                    
V 13  10754.905883  -7197.421167  29036.242230       .015572                    
P 14  20699.813238 -15437.053405   6078.117737   -251.730048                    
V 14   7605.132951  -1847.689995 -31197.084286       .043124                    
P 15   7753.478807  13166.351965 -21704.976405   -131.969805                    
V 15 -23866.428415  13901.639922    -83.194107      -.061853                    
P 16   2613.870936 -26179.628389   2766.780396    119.860738                    
V 16   2712.113614   3521.348357  31748.347383      -.016340                    
P 17 -20170.714335  16023.834106   6153.422706     38.607891                    
V 17  -8218.338445   1232.922595 -30522.473894      -.000809                    
P 18  15365.438558  -3562.472870 -21143.514793   -163.828818                    
V 18   -485.160489  27381.934090  -5285.413401       .041844                    
P 19  -8170.499933 -12971.200929 -21611.479448     32.541827                    
V 19  24898.180367 -12027.815880  -1996.788661       .006406                    
P 20 -13024.712845 -14545.144882  17905.705809    111.401787                    
V 20   1584.611617 -23017.458793 -17393.001888      -.008576                    
P 21  22352.870120   1293.359927 -14546.051945     60.202404                    
V 21  14610.442658  11783.281995  22573.478376      -.012421                    
P 22  11847.176283 -18181.436817 -15119.971330    211.518229                    
V 22   1450.674163  19636.753716 -22305.406395      -.000360                    
P 23 -18457.827314  -4254.541049  18653.912562    361.053010                    
V 23  20088.368887 -12652.404476  16681.626682       .019499                    
P 24  23016.104345  12531.343455  -3111.075525    104.408150                    
V 24   1680.754484   5059.894315  31422.953697       .030064                    
P 25 -24603.955588  -9092.579890  -3140.497267   -176.411732                    
V 25  -2825.571072  -4455.612824  31637.756810      -.051127                    
P 26   3299.891145  14652.404490 -22343.017631    280.244946                    
V 26 -24428.107282  11885.787005   4806.900887       .071680                    
P 27 -23394.298876  -2944.680374 -11684.161741    197.992768                    
V 27 -13085.343593  -9180.963258  26844.068221       .027278                    
P 28 -11965.849995  16571.800443 -16389.251556    -20.408433                    
V 28  -1316.460312 -21729.638188 -20856.298455      -.004068                    
P 29  23133.196525  -2157.429748  12962.429900    -42.364934                    
V 29 -13239.028275   9750.520729  25515.200974       .005383                    
P 30  15301.243860   2359.354620  21246.174394     82.730376                    
V 30    567.556159  27818.736358  -3344.185684       .017903                    
P 31   5953.648659 -14014.425776  21959.808417    -24.530057                    
V 31  23761.287676  13608.167918   2371.122932      -.012611                    
P 32  -6691.205485 -22661.360042  12752.649709    301.107040                    
V 32   3253.935329 -15185.825592 -25982.548373       .037747                    
EOF
